    longitudeofascnodedegrees: 316.85175997938
    argumentofperiapsisdegrees: 177.88019549131
    meananomalydegrees: 101.92964788004
    trueanomalydegrees: 127.92533546273
  - epochjd: 2464441.85934
    dateutc: 49423,3593287037
    semimajoraxisau: 1.3255552474961
    eccentricity: 0.25585430155762
    inclinationdegrees: 1.0728679894738
    longitudeofascnodedegrees: 316.86808713754
    argumentofperiapsisdegrees: 177.87123781468
    meananomalydegrees: 102.56866927707
    trueanomalydegrees: 128.42461558068
  - epochjd: 2464442.85934
    dateutc: 49424,3593287037
    semimajoraxisau: 1.3255868854306
    eccentricity: 0.2558347922715
    inclinationdegrees: 1.0726982757452
    longitudeofascnodedegrees: 316.88032474021
    argumentofperiapsisdegrees: 177.86383129608
    meananomalydegrees: 103.21049021343
    trueanomalydegrees: 128.92431708591
  - epochjd: 2464540.9763394
    dateutc: 49522,4763310185
    semimajoraxisau: 1.3256093174213
    eccentricity: 0.25578632895705
    inclinationdegrees: 1.072187667614
    longitudeofascnodedegrees: 316.91433717024
    argumentofperiapsisdegrees: 177.83028549886
    meananomalydegrees: 166.57768857592
    trueanomalydegrees: 171.75234723504
  - epochjd: 2464661.3195965
    dateutc: 49642,8195949074
    semimajoraxisau: 1.3256632008815
    eccentricity: 0.25575438562195
    inclinationdegrees: 1.0721096719438
    longitudeofascnodedegrees: 316.91292215485
    argumentofperiapsisdegrees: 177.82102045229
    meananomalydegrees: 244.30514833085
    trueanomalydegrees: 221.70838275583
  - epochjd: 2464781.6628535
    dateutc: 49763,1628472222
    semimajoraxisau: 1.3256976071876
    eccentricity: 0.25569747533047
    inclinationdegrees: 1.0720589023479
    longitudeofascnodedegrees: 316.90294019849
    argumentofperiapsisdegrees: 177.82051977196
    meananomalydegrees: 322.01788388486
    trueanomalydegrees: 298.70041618429
  - epochjd: 2464902.0061106
    dateutc: 49883,506099537
    semimajoraxisau: 1.325621037612
    eccentricity: 0.2556558735835
    inclinationdegrees: 1.0720858250917
    longitudeofascnodedegrees: 316.90046541268
    argumentofperiapsisdegrees: 177.8235722298
    meananomalydegrees: 39.727248557421
    trueanomalydegrees: 63.70897661575
  - epochjd: 2465022.3493677
    dateutc: 50003,8493634259
    semimajoraxisau: 1.3256679227965
    eccentricity: 0.25569990067209
    inclinationdegrees: 1.0720949188379
    longitudeofascnodedegrees: 316.8966929196
    argumentofperiapsisdegrees: 177.83291899035
    meananomalydegrees: 117.42724343607
    trueanomalydegrees: 139.53711588448
  - epochjd: 2465142.6926247
    dateutc: 50124,1926157407
    semimajoraxisau: 1.3256330745998
    eccentricity: 0.25574634600273
    inclinationdegrees: 1.0721551318183
    longitudeofascnodedegrees: 316.89596748807
    argumentofperiapsisdegrees: 177.83734475506
    meananomalydegrees: 195.13032228276
    trueanomalydegrees: 189.30384353405
  - epochjd: 2465263.0358818
    dateutc: 50244,5358796296
    semimajoraxisau: 1.325582157608
    eccentricity: 0.25578342321237
    inclinationdegrees: 1.0721624910338
    longitudeofascnodedegrees: 316.89540048855
    argumentofperiapsisdegrees: 177.84390710994
    meananomalydegrees: 272.83940492989
    trueanomalydegrees: 244.31864955999
  - epochjd: 2465383.3791389
    dateutc: 50364,8791319444
    semimajoraxisau: 1.3256550360084
    eccentricity: 0.25578907601896
    inclinationdegrees: 1.0721560224051
    longitudeofascnodedegrees: 316.89471914613
    argumentofperiapsisdegrees: 177.83030607409
    meananomalydegrees: 350.56478337926
    trueanomalydegrees: 343.62220748173
  - epochjd: 2465503.722396
    dateutc: 50485,2223958333
    semimajoraxisau: 1.3256308468797
    eccentricity: 0.25576518114307
    inclinationdegrees: 1.0721543855572
    longitudeofascnodedegrees: 316.89437776153
    argumentofperiapsisdegrees: 177.8293898649
    meananomalydegrees: 68.278587611806
    trueanomalydegrees: 97.762101078473
  - epochjd: 2465624.065653
    dateutc: 50605,5656481481
    semimajoraxisau: 1.3256617011241
    eccentricity: 0.2557502852981
    inclinationdegrees: 1.0721691252114
    longitudeofascnodedegrees: 316.89362518283
    argumentofperiapsisdegrees: 177.83592977781
    meananomalydegrees: 145.98416055162
    trueanomalydegrees: 158.82383430769
  - epochjd: 2465744.4089101
    dateutc: 50725,908900463
    semimajoraxisau: 1.3256608391547
    eccentricity: 0.25574667159272
    inclinationdegrees: 1.0721007324217
    longitudeofascnodedegrees: 316.89332094645
    argumentofperiapsisdegrees: 177.84432297913
    meananomalydegrees: 223.68087060016
    trueanomalydegrees: 207.47015102242
  - epochjd: 2465864.7521672
    dateutc: 50846,2521643518
    semimajoraxisau: 1.3255996017824
    eccentricity: 0.25576230376305
    inclinationdegrees: 1.0720786025232
    longitudeofascnodedegrees: 316.89164781378
    argumentofperiapsisdegrees: 177.85700261665
    meananomalydegrees: 301.38186454755
    trueanomalydegrees: 272.68412700021
  - epochjd: 2465985.0954242
    dateutc: 50966,5954166667
    semimajoraxisau: 1.3256002410093
    eccentricity: 0.2557678166519
    inclinationdegrees: 1.072059962607
    longitudeofascnodedegrees: 316.89116931815
    argumentofperiapsisdegrees: 177.85266626594
    meananomalydegrees: 19.1001184261
    trueanomalydegrees: 32.610318391897
  - epochjd: 2466105.4386813
    dateutc: 51086,9386805556
    semimajoraxisau: 1.3255389236167
    eccentricity: 0.25576820151176
    inclinationdegrees: 1.0720376929165
    longitudeofascnodedegrees: 316.88771420631
    argumentofperiapsisdegrees: 177.84411509765
    meananomalydegrees: 96.828131875605
    trueanomalydegrees: 123.83500573241
  - epochjd: 2466225.7819384
    dateutc: 51207,2819328704
    semimajoraxisau: 1.3256083721481
    eccentricity: 0.25572072214221
    inclinationdegrees: 1.0719583305175
    longitudeofascnodedegrees: 316.89002458267
    argumentofperiapsisdegrees: 177.849880341
    meananomalydegrees: 174.53711309478
    trueanomalydegrees: 176.64941538409
  - epochjd: 2466346.1251955
    dateutc: 51327,6251851852
    semimajoraxisau: 1.3256335873652
    eccentricity: 0.25567906277336
    inclinationdegrees: 1.0718719687952
    longitudeofascnodedegrees: 316.88812587921
    argumentofperiapsisdegrees: 177.85521392925
    meananomalydegrees: 252.24289075884
    trueanomalydegrees: 227.59427144111
  - epochjd: 2466466.4684525
    dateutc: 51447,9684490741
    semimajoraxisau: 1.3255801463669
    eccentricity: 0.2556476515443
    inclinationdegrees: 1.0718413972767
    longitudeofascnodedegrees: 316.88341679691
    argumentofperiapsisdegrees: 177.86652482337
    meananomalydegrees: 329.94746411727
    trueanomalydegrees: 310.19478316714
  - epochjd: 2466586.8117096
    dateutc: 51568,3117013889
    semimajoraxisau: 1.3256242843393
    eccentricity: 0.2556776593681
    inclinationdegrees: 1.0717933977955
    longitudeofascnodedegrees: 316.88127869965
    argumentofperiapsisdegrees: 177.86924116675
    meananomalydegrees: 47.661427912303
    trueanomalydegrees: 74.173346035215
  - epochjd: 2466707.1549667
    dateutc: 51688,6549652778
    semimajoraxisau: 1.325517220015
    eccentricity: 0.25569062587997
    inclinationdegrees: 1.0718524318427
    longitudeofascnodedegrees: 316.8726532956
    argumentofperiapsisdegrees: 177.85845427272
    meananomalydegrees: 125.40004741683
    trueanomalydegrees: 145.15011497316
  - epochjd: 2466827.4982237
    dateutc: 51808,9982175926
    semimajoraxisau: 1.325514504648
    eccentricity: 0.2556808310623
    inclinationdegrees: 1.0718298514622
    longitudeofascnodedegrees: 316.87188196126
    argumentofperiapsisdegrees: 177.8540141815
    meananomalydegrees: 203.13131074881
    trueanomalydegrees: 194.28312635246
  - epochjd: 2466947.8414808
    dateutc: 51929,3414699074
    semimajoraxisau: 1.3255636863995
    eccentricity: 0.25563761624318
    inclinationdegrees: 1.0717597150707
    longitudeofascnodedegrees: 316.86907797854
    argumentofperiapsisdegrees: 177.85148785089
    meananomalydegrees: 280.85526020338
    trueanomalydegrees: 251.58355047194
  - epochjd: 2467068.1847379
    dateutc: 52049,6847337963
    semimajoraxisau: 1.3255099229108
    eccentricity: 0.25559793633963
    inclinationdegrees: 1.071780970891
    longitudeofascnodedegrees: 316.86559083183
    argumentofperiapsisdegrees: 177.85492153823
    meananomalydegrees: 358.57283613243
    trueanomalydegrees: 357.51038527027
  - epochjd: 2467188.5279949
    dateutc: 52170,0279861111
    semimajoraxisau: 1.3255535807346
    eccentricity: 0.25562799642052
    inclinationdegrees: 1.0717733910281
    longitudeofascnodedegrees: 316.86077623676
    argumentofperiapsisdegrees: 177.86318803972
    meananomalydegrees: 76.288779259349
    trueanomalydegrees: 105.7111619842
  - epochjd: 2467308.871252
    dateutc: 52290,37125
    semimajoraxisau: 1.3255367639622
    eccentricity: 0.25571423800761
    inclinationdegrees: 1.0718932775827
    longitudeofascnodedegrees: 316.85339689685
    argumentofperiapsisdegrees: 177.87407595507
    meananomalydegrees: 153.99523371089
    trueanomalydegrees: 163.9134723193
  - epochjd: 2467429.2145091
    dateutc: 52410,7145023148
    semimajoraxisau: 1.3254844698771
    eccentricity: 0.25577028719793
    inclinationdegrees: 1.0719718592584
    longitudeofascnodedegrees: 316.85346573816
    argumentofperiapsisdegrees: 177.87074240653
    meananomalydegrees: 231.72492526611
    trueanomalydegrees: 212.8709312425
  - epochjd: 2467549.5577662
    dateutc: 52531,0577546296
    semimajoraxisau: 1.3255070049473
    eccentricity: 0.25576815449608
    inclinationdegrees: 1.0719504527
    longitudeofascnodedegrees: 316.85054661731
    argumentofperiapsisdegrees: 177.86898102328
    meananomalydegrees: 309.45458771105
    trueanomalydegrees: 282.21613809312
  - epochjd: 2467669.9010232
    dateutc: 52651,4010185185
    semimajoraxisau: 1.325376750895
    eccentricity: 0.25569614932878
    inclinationdegrees: 1.0719834330499
